[{"type":"Feature","id":"relation/330978","properties":{"timestamp":"2017-03-19T19:11:57Z","version":"2","changeset":"46991066","user":"hecktor","uid":"465052","addr:city":"Lausanne","addr:country":"CH","amenity":"police","building":"yes","name":"Hôtel de police","opening_hours":"24/7","source":"Orthophotos Ville de Lausanne 2008","type":"multipolygon","id":"relation/330978"},"geometry":{"type":"Polygon","coordinates":[[[6.6365998,46.5247574],[6.6365729,46.5248011],[6.6365081,46.5249065],[6.6364657,46.525006],[6.6364489,46.5251768],[6.6365681,46.5252791],[6.6366562,46.525281],[6.6366556,46.525299],[6.6366952,46.5253092],[6.6367356,46.5253185],[6.6367881,46.525325],[6.6368412,46.5253259],[6.6368903,46.5253213],[6.6369374,46.5253129],[6.6369394,46.5252921],[6.6370209,46.5252934],[6.6371333,46.5252138],[6.637172,46.5251864],[6.6371843,46.5250294],[6.6370718,46.5247348],[6.6369434,46.5247564],[6.6369403,46.5247645],[6.636805,46.5247674],[6.6368041,46.5247853],[6.6367735,46.5247848],[6.6367343,46.5247841],[6.6365998,46.5247574]],[[6.6366732,46.525063],[6.6366063,46.5250602],[6.6366095,46.5249856],[6.6366162,46.5249625],[6.6366843,46.5248526],[6.6370181,46.5248485],[6.6370786,46.5250007],[6.6370694,46.5250828],[6.6369928,46.5250788],[6.6369954,46.5250088],[6.6369912,46.5249827],[6.6369735,46.5249538],[6.636955,46.5249365],[6.6369281,46.5249214],[6.6368928,46.5249075],[6.6368583,46.5249023],[6.6368146,46.5249018],[6.6367759,46.5249099],[6.6367415,46.5249214],[6.6367137,46.5249411],[6.6366969,46.5249596],[6.6366851,46.5249793],[6.6366801,46.5250036],[6.6366732,46.525063]]]}},{"type":"Feature","id":"way/44604140","properties":{"timestamp":"2016-04-13T20:05:40Z","version":"4","changeset":"38536631","user":"floyd70","uid":"3068030","addr:city":"Lausanne","addr:country":"CH","addr:housenumber":"2","addr:street":"Rue Dr-César-Roux","building":"yes","source":"Orthophoto Ville de Lausanne 2008","id":"way/44604140"},"geometry":{"type":"Polygon","coordinates":[[[6.6376712,46.5246365],[6.6375866,46.5246162],[6.637537,46.5247128],[6.6374771,46.5247117],[6.6374773,46.5247042],[6.6374016,46.5247036],[6.6374008,46.5247105],[6.6373453,46.5247082],[6.6372957,46.5246035],[6.6372099,46.5246209],[6.6373007,46.5248598],[6.6373293,46.5248546],[6.637331,46.5248742],[6.6375479,46.5248754],[6.6375496,46.5248574],[6.6375635,46.5248579],[6.6376712,46.5246365]]]}},{"type":"Feature","id":"way/44606004","properties":{"timestamp":"2015-10-15T17:26:34Z","version":"4","changeset":"34659576","user":"mathieuS","uid":"40504","addr:city":"Lausanne","addr:country":"CH","addr:housenumber":"19","addr:street":"Avenue Robert de Menthon","building":"yes","source":"Orthophoto Ville de Lausanne 2008","id":"way/44606004"},"geometry":{"type":"Polygon","coordinates":[[[6.6368154,46.5238699],[6.6367742,46.5236906],[6.6366422,46.5237049],[6.6366834,46.5238842],[6.6368154,46.5238699]]]}},{"type":"Feature","id":"way/44606006","properties":{"timestamp":"2009-12-10T10:18:33Z","version":"3","changeset":"3339876","user":"Stéphane Brunner","uid":"17835","addr:city":"Lausanne","addr:country":"CH","building":"yes","source":"Orthophoto Ville de Lausanne 2008","id":"way/44606006"},"geometry":{"type":"Polygon","coordinates":[[[6.6366196,46.5242273],[6.6366684,46.5240931],[6.6365778,46.5240775],[6.636529,46.5242117],[6.6366196,46.5242273]]]}},{"type":"Feature","id":"way/44606008","properties":{"timestamp":"2015-10-15T17:24:46Z","version":"4","changeset":"34659532","user":"mathieuS","uid":"40504","addr:city":"Lausanne","addr:country":"CH","addr:housenumber":"5","addr:street":"Chemin de Couvaloup","building":"yes","source":"Orthophoto Ville de Lausanne 2008","id":"way/44606008"},"geometry":{"type":"Polygon","coordinates":[[[6.6367424,46.5242724],[6.6366289,46.5242672],[6.6366238,46.5243193],[6.63661,46.5243486],[6.6365839,46.5243405],[6.6365511,46.5243845],[6.6365764,46.5243937],[6.6365281,46.5244654],[6.6365155,46.524462],[6.6364659,46.524532],[6.6364794,46.5245377],[6.6364514,46.5245764],[6.6363951,46.5245602],[6.6363665,46.5246076],[6.6364211,46.5246296],[6.6364111,46.5246409],[6.6365246,46.5246797],[6.6367365,46.5243297],[6.6367424,46.5242724]]]}},{"type":"Feature","id":"way/44606757","properties":{"timestamp":"2017-09-04T08:24:15Z","version":"4","changeset":"51710777","user":"mathieuS","uid":"40504","addr:city":"Lausanne","addr:country":"CH","building":"yes","source":"Orthophoto Ville de Lausanne 2008","id":"way/44606757"},"geometry":{"type":"Polygon","coordinates":[[[6.6368831,46.5245866],[6.6370114,46.524565],[6.6369866,46.5244898],[6.6369384,46.5243512],[6.6368484,46.5243495],[6.6366949,46.5246013],[6.6366694,46.5246432],[6.6365998,46.5247574],[6.6367343,46.5247841],[6.6367735,46.5247848],[6.6368831,46.5245866]]]}},{"type":"Feature","id":"way/44962758","properties":{"timestamp":"2015-10-15T17:24:44Z","version":"4","changeset":"34659532","user":"mathieuS","uid":"40504","addr:city":"Lausanne","addr:country":"CH","addr:housenumber":"13","addr:street":"Chemin de Couvaloup","building":"yes","source":"Orthophoto Ville de Lausanne 2008","id":"way/44962758"},"geometry":{"type":"Polygon","coordinates":[[[6.6363135,46.525194],[6.6363352,46.5250795],[6.6363445,46.5250301],[6.636354,46.5249799],[6.6362325,46.524969],[6.6362076,46.5251004],[6.636192,46.5251831],[6.6362832,46.5251913],[6.6363135,46.525194]]]}},{"type":"Feature","id":"way/44962760","properties":{"timestamp":"2015-10-15T17:24:44Z","version":"5","changeset":"34659532","user":"mathieuS","uid":"40504","addr:city":"Lausanne","addr:country":"CH","addr:housenumber":"15","addr:street":"Chemin de Couvaloup","building":"yes","source":"Orthophoto Ville de Lausanne 2008","id":"way/44962760"},"geometry":{"type":"Polygon","coordinates":[[[6.6362241,46.5253426],[6.6362633,46.5253427],[6.6362832,46.5251913],[6.636192,46.5251831],[6.6361615,46.5251813],[6.6361549,46.5252122],[6.6361475,46.5252912],[6.6362241,46.5253426]]]}},{"type":"Feature","id":"way/53157245","properties":{"timestamp":"2017-04-25T08:11:29Z","version":"4","changeset":"48114701","user":"mathieuS","uid":"40504","addr:city":"Lausanne","addr:housenumber":"3","addr:postcode":"1005","addr:street":"Place du Château","alt_name":"ESsanté","building":"yes","name":"École supérieure de la santé","source":"Orthophoto Ville de Lausanne 2008","id":"way/53157245"},"geometry":{"type":"Polygon","coordinates":[[[6.6362273,46.5240836],[6.6362071,46.5241592],[6.6361847,46.5242426],[6.6361774,46.5242417],[6.6361597,46.5243079],[6.6361201,46.5243028],[6.636116,46.5243183],[6.6361226,46.5243191],[6.6361153,46.5243463],[6.6361088,46.5243455],[6.6360872,46.524426],[6.6360949,46.524427],[6.636086,46.5244604],[6.636121,46.5244649],[6.636118,46.524476],[6.6361129,46.5244754],[6.6360982,46.52453],[6.6361062,46.524531],[6.6360622,46.524695],[6.6362239,46.5247155],[6.6362854,46.5247233],[6.636315,46.5246131],[6.6363437,46.5245062],[6.6364003,46.5245133],[6.636445,46.5243466],[6.6363827,46.5243387],[6.6364437,46.5241111],[6.6363747,46.5241023],[6.6362273,46.5240836]]]}},{"type":"Feature","id":"way/53157249","properties":{"timestamp":"2015-10-15T17:24:45Z","version":"2","changeset":"34659532","user":"mathieuS","uid":"40504","addr:city":"Lausanne","addr:housenumber":"20","addr:postcode":"1005","addr:street":"Rue Cité-Derrière","building":"yes","source":"Lausanne - Orthophoto technique 2012","id":"way/53157249"},"geometry":{"type":"Polygon","coordinates":[[[6.6364741,46.5235754],[6.6363354,46.5235791],[6.6362461,46.5235876],[6.6362488,46.5236075],[6.63623,46.5236089],[6.636235,46.5238351],[6.6363167,46.5238382],[6.6363185,46.5238507],[6.6363788,46.5238575],[6.6364904,46.5238538],[6.6364741,46.5235754]]]}},{"type":"Feature","id":"way/53157273","properties":{"timestamp":"2015-10-15T17:24:45Z","version":"2","changeset":"34659532","user":"mathieuS","uid":"40504","addr:city":"Lausanne","addr:housenumber":"28","addr:postcode":"1005","addr:street":"Rue Cité-Derrière","building":"yes","source":"Lausanne - Orthophoto technique 2012","id":"way/53157273"},"geometry":{"type":"Polygon","coordinates":[[[6.636235,46.5238351],[6.6362325,46.5238501],[6.6362273,46.5240836],[6.6363747,46.5241023],[6.6364467,46.5239104],[6.6363855,46.5239012],[6.6363788,46.5238575],[6.6363185,46.5238507],[6.6363167,46.5238382],[6.636235,46.5238351]]]}},{"type":"Feature","id":"way/304534956","properties":{"timestamp":"2017-09-04T08:24:16Z","version":"2","changeset":"51710777","user":"mathieuS","uid":"40504","addr:city":"Lausanne","addr:country":"CH","building":"yes","source":"Orthophoto Ville de Lausanne 2008","id":"way/304534956"},"geometry":{"type":"Polygon","coordinates":[[[6.6377628,46.5237545],[6.6377256,46.5237475],[6.6374983,46.5237064],[6.6373223,46.523697],[6.6372856,46.5238356],[6.6372694,46.5239258],[6.6374512,46.5239414],[6.6374372,46.5240144],[6.6374976,46.5240194],[6.637511,46.5239734],[6.6376048,46.5239879],[6.6377001,46.5240026],[6.6377354,46.5238626],[6.6377596,46.5237669],[6.6377628,46.5237545]]]}},{"type":"Feature","id":"way/304534958","properties":{"timestamp":"2018-02-14T13:55:15Z","version":"5","changeset":"56353729","user":"mathieuS","uid":"40504","addr:city":"Lausanne","addr:country":"CH","building":"yes","source":"Orthophoto Ville de Lausanne 2008","id":"way/304534958"},"geometry":{"type":"Polygon","coordinates":[[[6.6379471,46.5240403],[6.6377954,46.5240026],[6.6376725,46.524246],[6.6374898,46.5241978],[6.6374693,46.5242389],[6.6374157,46.5242259],[6.637411,46.5242384],[6.6373408,46.5242179],[6.6373393,46.5242254],[6.6372183,46.5242306],[6.6372042,46.5243387],[6.6372504,46.5243496],[6.6372466,46.5243588],[6.6374251,46.5243957],[6.6376876,46.5244499],[6.6376927,46.5244379],[6.6377403,46.5244486],[6.6377884,46.5243537],[6.6378742,46.5241842],[6.6379471,46.5240403]]]}},{"type":"Feature","id":"way/304534960","properties":{"timestamp":"2016-04-10T18:48:56Z","version":"2","changeset":"38458203","user":"floyd70","uid":"3068030","addr:city":"Lausanne","addr:country":"CH","addr:housenumber":"36","addr:street":"Rue Saint-Martin","building":"yes","source":"Orthophoto Ville de Lausanne 2008","id":"way/304534960"},"geometry":{"type":"Polygon","coordinates":[[[6.6372694,46.5239258],[6.6372411,46.5240841],[6.6373661,46.5240941],[6.6374212,46.5240986],[6.6374372,46.5240144],[6.6374512,46.5239414],[6.6372694,46.5239258]]]}},{"type":"Feature","id":"way/304534962","properties":{"timestamp":"2016-04-10T18:48:56Z","version":"2","changeset":"38458203","user":"floyd70","uid":"3068030","addr:city":"Lausanne","addr:country":"CH","addr:housenumber":"38","addr:street":"Rue Saint-Martin","building":"yes","source":"Orthophoto Ville de Lausanne 2008","id":"way/304534962"},"geometry":{"type":"Polygon","coordinates":[[[6.6372411,46.5240841],[6.6372295,46.5241488],[6.6372183,46.5242306],[6.6373393,46.5242254],[6.6373408,46.5242179],[6.6373661,46.5240941],[6.6372411,46.5240841]]]}},{"type":"Feature","id":"way/521172205","properties":{"timestamp":"2017-09-04T08:24:11Z","version":"1","changeset":"51710777","user":"mathieuS","uid":"40504","addr:city":"Lausanne","addr:country":"CH","addr:housenumber":"31","addr:street":"Rue Saint-Martin","building":"yes","source":"Orthophoto Ville de Lausanne 2008","id":"way/521172205"},"geometry":{"type":"Polygon","coordinates":[[[6.6370114,46.524565],[6.6368831,46.5245866],[6.6369434,46.5247564],[6.6370718,46.5247348],[6.6370114,46.524565]]]}}]